[{"OBJECT_NAME":"STARLINK-32824","OBJECT_ID":"2025-018M","EPOCH":"2025-10-07T08:19:02.446176","MEAN_MOTION":15.30206264,"ECCENTRICITY":0.00012496,"INCLINATION":53.1582,"RA_OF_ASC_NODE":301.6605,"ARG_OF_PERICENTER":87.1081,"MEAN_ANOMALY":273.0063,"EPHEMERIS_TYPE":0,"CLASSIFICATION_TYPE":"U","NORAD_CAT_ID":62817,"ELEMENT_SET_NO":999,"REV_AT_EPOCH":4064,"BSTAR":0.00082537218,"MEAN_MOTION_DOT":0.0002417,"MEAN_MOTION_DDOT":0},{"OBJECT_NAME":"STARLINK-32853","OBJECT_ID":"2025-018N","EPOCH":"2025-10-07T11:18:01.783008","MEAN_MOTION":15.30211589,"ECCENTRICITY":0.00013266,"INCLINATION":53.1584,"RA_OF_ASC_NODE":301.0149,"ARG_OF_PERICENTER":87.5778,"MEAN_ANOMALY":272.5374,"EPHEMERIS_TYPE":0,"CLASSIFICATION_TYPE":"U","NORAD_CAT_ID":62818,"ELEMENT_SET_NO":999,"REV_AT_EPOCH":3972,"BSTAR":0.0011468907,"MEAN_MOTION_DOT":0.00033775,"MEAN_MOTION_DDOT":0},{"OBJECT_NAME":"STARLINK-32856","OBJECT_ID":"2025-018P","EPOCH":"2025-10-07T08:43:21.349056","MEAN_MOTION":15.3022759,"ECCENTRICITY":0.00011924,"INCLINATION":53.157,"RA_OF_ASC_NODE":301.7708,"ARG_OF_PERICENTER":88.52,"MEAN_ANOMALY":271.5938,"EPHEMERIS_TYPE":0,"CLASSIFICATION_TYPE":"U","NORAD_CAT_ID":62819,"ELEMENT_SET_NO":999,"REV_AT_EPOCH":3970,"BSTAR":0.0011771927,"MEAN_MOTION_DOT":0.00034699,"MEAN_MOTION_DDOT":0},{"OBJECT_NAME":"STARLINK-32844","OBJECT_ID":"2025-018Q","EPOCH":"2025-10-07T08:47:53.413152","MEAN_MOTION":15.30189884,"ECCENTRICITY":8.896e-5,"INCLINATION":53.1572,"RA_OF_ASC_NODE":301.7859,"ARG_OF_PERICENTER":87.0424,"MEAN_ANOMALY":273.0679,"EPHEMERIS_TYPE":0,"CLASSIFICATION_TYPE":"U","NORAD_CAT_ID":62820,"ELEMENT_SET_NO":999,"REV_AT_EPOCH":3969,"BSTAR":-0.00065215007,"MEAN_MOTION_DOT":-0.00019617,"MEAN_MOTION_DDOT":0},{"OBJECT_NAME":"STARLINK-32782","OBJECT_ID":"2025-018R","EPOCH":"2025-10-07T08:28:09.526656","MEAN_MOTION":15.30208046,"ECCENTRICITY":0.00011563,"INCLINATION":53.1576,"RA_OF_ASC_NODE":301.7012,"ARG_OF_PERICENTER":92.053,"MEAN_ANOMALY":268.0603,"EPHEMERIS_TYPE":0,"CLASSIFICATION_TYPE":"U","NORAD_CAT_ID":62821,"ELEMENT_SET_NO":999,"REV_AT_EPOCH":3970,"BSTAR":0.0011144674,"MEAN_MOTION_DOT":0.00032802,"MEAN_MOTION_DDOT":0},{"OBJECT_NAME":"STARLINK-32842","OBJECT_ID":"2025-018S","EPOCH":"2025-10-07T08:38:47.579424","MEAN_MOTION":15.30213176,"ECCENTRICITY":9.07e-5,"INCLINATION":53.1568,"RA_OF_ASC_NODE":301.7506,"ARG_OF_PERICENTER":101.4356,"MEAN_ANOMALY":258.6747,"EPHEMERIS_TYPE":0,"CLASSIFICATION_TYPE":"U","NORAD_CAT_ID":62822,"ELEMENT_SET_NO":999,"REV_AT_EPOCH":3970,"BSTAR":-0.00075597102,"MEAN_MOTION_DOT":-0.0002269,"MEAN_MOTION_DDOT":0},{"OBJECT_NAME":"STARLINK-32823","OBJECT_ID":"2025-018T","EPOCH":"2025-10-07T08:14:29.062752","MEAN_MOTION":15.30213544,"ECCENTRICITY":0.00013476,"INCLINATION":53.1586,"RA_OF_ASC_NODE":301.6414,"ARG_OF_PERICENTER":75.0206,"MEAN_ANOMALY":285.0944,"EPHEMERIS_TYPE":0,"CLASSIFICATION_TYPE":"U","NORAD_CAT_ID":62823,"ELEMENT_SET_NO":999,"REV_AT_EPOCH":3970,"BSTAR":0.0009771775,"MEAN_MOTION_DOT":0.00028706,"MEAN_MOTION_DDOT":0},{"OBJECT_NAME":"STARLINK-32852","OBJECT_ID":"2025-018U","EPOCH":"2025-10-07T12:05:08.256192","MEAN_MOTION":15.30215629,"ECCENTRICITY":0.00014065,"INCLINATION":53.1584,"RA_OF_ASC_NODE":301.2228,"ARG_OF_PERICENTER":78.4679,"MEAN_ANOMALY":281.648,"EPHEMERIS_TYPE":0,"CLASSIFICATION_TYPE":"U","NORAD_CAT_ID":62824,"ELEMENT_SET_NO":999,"REV_AT_EPOCH":3972,"BSTAR":0.00084056055,"MEAN_MOTION_DOT":0.0002463,"MEAN_MOTION_DDOT":0},{"OBJECT_NAME":"STARLINK-32825","OBJECT_ID":"2025-018V","EPOCH":"2025-10-07T10:52:57.355968","MEAN_MOTION":15.3019645,"ECCENTRICITY":0.00014408,"INCLINATION":53.1589,"RA_OF_ASC_NODE":298.7764,"ARG_OF_PERICENTER":75.1958,"MEAN_ANOMALY":284.9203,"EPHEMERIS_TYPE":0,"CLASSIFICATION_TYPE":"U","NORAD_CAT_ID":62825,"ELEMENT_SET_NO":999,"REV_AT_EPOCH":3974,"BSTAR":0.0010094077,"MEAN_MOTION_DOT":0.00029653,"MEAN_MOTION_DDOT":0},{"OBJECT_NAME":"STARLINK-32704","OBJECT_ID":"2025-018W","EPOCH":"2025-10-07T11:52:59.219040","MEAN_MOTION":15.30212058,"ECCENTRICITY":0.00011849,"INCLINATION":53.1574,"RA_OF_ASC_NODE":301.1888,"ARG_OF_PERICENTER":89.595,"MEAN_ANOMALY":270.5187,"EPHEMERIS_TYPE":0,"CLASSIFICATION_TYPE":"U","NORAD_CAT_ID":62826,"ELEMENT_SET_NO":999,"REV_AT_EPOCH":3971,"BSTAR":0.00061422089,"MEAN_MOTION_DOT":0.00017883,"MEAN_MOTION_DDOT":0},{"OBJECT_NAME":"STARLINK-32838","OBJECT_ID":"2025-018X","EPOCH":"2025-10-07T08:09:07.622784","MEAN_MOTION":15.30221352,"ECCENTRICITY":0.00015188,"INCLINATION":53.1586,"RA_OF_ASC_NODE":263.607,"ARG_OF_PERICENTER":73.4402,"MEAN_ANOMALY":286.6766,"EPHEMERIS_TYPE":0,"CLASSIFICATION_TYPE":"U","NORAD_CAT_ID":62827,"ELEMENT_SET_NO":999,"REV_AT_EPOCH":4022,"BSTAR":0.00090917475,"MEAN_MOTION_DOT":0.00026683,"MEAN_MOTION_DDOT":0},{"OBJECT_NAME":"STARLINK-32727","OBJECT_ID":"2025-018Y","EPOCH":"2025-10-07T10:21:03.199392","MEAN_MOTION":15.30192124,"ECCENTRICITY":0.00015552,"INCLINATION":53.1586,"RA_OF_ASC_NODE":298.6394,"ARG_OF_PERICENTER":82.9952,"MEAN_ANOMALY":277.1226,"EPHEMERIS_TYPE":0,"CLASSIFICATION_TYPE":"U","NORAD_CAT_ID":62828,"ELEMENT_SET_NO":999,"REV_AT_EPOCH":4069,"BSTAR":0.0013113975,"MEAN_MOTION_DOT":0.00038674,"MEAN_MOTION_DDOT":0},{"OBJECT_NAME":"STARLINK-11548 [DTC]","OBJECT_ID":"2025-019A","EPOCH":"2025-10-06T22:38:24.350496","MEAN_MOTION":15.70886623,"ECCENTRICITY":0.00012758,"INCLINATION":42.9994,"RA_OF_ASC_NODE":152.4299,"ARG_OF_PERICENTER":264.0147,"MEAN_ANOMALY":96.0576,"EPHEMERIS_TYPE":0,"CLASSIFICATION_TYPE":"U","NORAD_CAT_ID":62829,"ELEMENT_SET_NO":999,"REV_AT_EPOCH":3970,"BSTAR":0.0018410969,"MEAN_MOTION_DOT":0.00243311,"MEAN_MOTION_DDOT":0},{"OBJECT_NAME":"STARLINK-11480 [DTC]","OBJECT_ID":"2025-019B","EPOCH":"2025-10-07T15:56:07.969632","MEAN_MOTION":15.70955782,"ECCENTRICITY":0.00011527,"INCLINATION":42.9988,"RA_OF_ASC_NODE":148.3848,"ARG_OF_PERICENTER":251.4702,"MEAN_ANOMALY":108.6041,"EPHEMERIS_TYPE":0,"CLASSIFICATION_TYPE":"U","NORAD_CAT_ID":62830,"ELEMENT_SET_NO":999,"REV_AT_EPOCH":3981,"BSTAR":0.0026368312,"MEAN_MOTION_DOT":0.00354453,"MEAN_MOTION_DDOT":0},{"OBJECT_NAME":"STARLINK-11559 [DTC]","OBJECT_ID":"2025-019C","EPOCH":"2025-10-06T23:54:51.997824","MEAN_MOTION":15.70942036,"ECCENTRICITY":0.00016131,"INCLINATION":43.0002,"RA_OF_ASC_NODE":152.8566,"ARG_OF_PERICENTER":325.1971,"MEAN_ANOMALY":34.8791,"EPHEMERIS_TYPE":0,"CLASSIFICATION_TYPE":"U","NORAD_CAT_ID":62831,"ELEMENT_SET_NO":999,"REV_AT_EPOCH":3970,"BSTAR":0.0027229799,"MEAN_MOTION_DOT":0.00366362,"MEAN_MOTION_DDOT":0},{"OBJECT_NAME":"STARLINK-11549 [DTC]","OBJECT_ID":"2025-019D","EPOCH":"2025-10-07T14:47:30.495552","MEAN_MOTION":15.7087225,"ECCENTRICITY":0.00018757,"INCLINATION":42.999,"RA_OF_ASC_NODE":148.8953,"ARG_OF_PERICENTER":242.9947,"MEAN_ANOMALY":117.0729,"EPHEMERIS_TYPE":0,"CLASSIFICATION_TYPE":"U","NORAD_CAT_ID":62832,"ELEMENT_SET_NO":999,"REV_AT_EPOCH":3980,"BSTAR":0.001817981,"MEAN_MOTION_DOT":0.00240011,"MEAN_MOTION_DDOT":0}]
