62817,STARLINK-32824,2025,94.11,-1.0,+,53.16,Active,0,LEO,USA,USA,Unknown,Unknown,Unknown,1 62817U 25018M   25280.34655609  .00024170  00000+0  82537-3 0  9996,2 62817  53.1582 301.6605 0001249  87.1081 273.0063 15.30206264 40646,15.30206264,0.0001249,LEO
62818,STARLINK-32853,2025,94.11,-1.0,+,53.16,Active,0,LEO,USA,USA,Unknown,Unknown,Unknown,1 62818U 25018N   25280.47085397  .00033775  00000+0  11469-2 0  9998,2 62818  53.1584 301.0149 0001326  87.5778 272.5374 15.30211589 39721,15.30211589,0.0001326,LEO
62819,STARLINK-32856,2025,94.11,-1.0,+,53.16,Active,0,LEO,USA,USA,Unknown,Unknown,Unknown,1 62819U 25018P   25280.36344154  .00034699  00000+0  11772-2 0  9999,2 62819  53.1570 301.7708 0001192  88.5200 271.5938 15.30227590 39709,15.3022759,0.0001192,LEO
62820,STARLINK-32844,2025,94.11,-1.0,+,53.16,Active,0,LEO,USA,USA,Unknown,Unknown,Unknown,1 62820U 25018Q   25280.36659043 -.00019617  00000+0 -65215-3 0  9994,2 62820  53.1572 301.7859 0000889  87.0424 273.0679 15.30189884 39694,15.30189884,8.89e-05,LEO
62821,STARLINK-32782,2025,94.11,-1.0,+,53.16,Active,0,LEO,USA,USA,Unknown,Unknown,Unknown,1 62821U 25018R   25280.35288804  .00032802  00000+0  11145-2 0  9998,2 62821  53.1576 301.7012 0001156  92.0530 268.0603 15.30208046 39707,15.30208046,0.0001156,LEO
62822,STARLINK-32842,2025,94.11,-1.0,+,53.16,Active,0,LEO,USA,USA,Unknown,Unknown,Unknown,1 62822U 25018S   25280.36027291 -.00022690  00000+0 -75597-3 0  9999,2 62822  53.1568 301.7506 0000907 101.4356 258.6747 15.30213176 39705,15.30213176,9.07e-05,LEO
62823,STARLINK-32823,2025,94.11,-1.0,+,53.16,Active,0,LEO,USA,USA,Unknown,Unknown,Unknown,1 62823U 25018T   25280.34339193  .00028706  00000+0  97718-3 0  9996,2 62823  53.1586 301.6414 0001347  75.0206 285.0944 15.30213544 39704,15.30213544,0.0001347,LEO
62824,STARLINK-32852,2025,94.11,-1.0,+,53.16,Active,0,LEO,USA,USA,Unknown,Unknown,Unknown,1 62824U 25018U   25280.50356778  .00024630  00000+0  84056-3 0  9996,2 62824  53.1584 301.2228 0001406  78.4679 281.6480 15.30215629 39724,15.30215629,0.0001406,LEO
62825,STARLINK-32825,2025,94.11,-1.0,+,53.16,Active,0,LEO,USA,USA,Unknown,Unknown,Unknown,1 62825U 25018V   25280.45344162  .00029653  00000+0  10094-2 0  9995,2 62825  53.1589 298.7764 0001440  75.1958 284.9203 15.30196450 39748,15.3019645,0.000144,LEO
62826,STARLINK-32704,2025,94.11,-1.0,+,53.16,Active,0,LEO,USA,USA,Unknown,Unknown,Unknown,1 62826U 25018W   25280.49512985  .00017883  00000+0  61422-3 0  9994,2 62826  53.1574 301.1888 0001184  89.5950 270.5187 15.30212058 39717,15.30212058,0.0001184,LEO
62827,STARLINK-32838,2025,94.1,-1.0,+,53.16,Active,0,LEO,USA,USA,Unknown,Unknown,Unknown,1 62827U 25018X   25280.33967156  .00026683  00000+0  90917-3 0  9991,2 62827  53.1586 263.6070 0001518  73.4402 286.6766 15.30221352 40227,15.30221352,0.0001518,LEO
62828,STARLINK-32727,2025,94.11,-1.0,+,53.16,Active,0,LEO,USA,USA,Unknown,Unknown,Unknown,1 62828U 25018Y   25280.43128703  .00038674  00000+0  13114-2 0  9996,2 62828  53.1586 298.6394 0001555  82.9952 277.1226 15.30192124 40692,15.30192124,0.0001555,LEO
62829,STARLINK-11548 [DTC],2025,91.66,-1.0,+,43.0,Active,0,LEO,USA,USA,Unknown,Unknown,Unknown,1 62829U 25019A   25279.94333739  .00243311  00000+0  18411-2 0  9990,2 62829  42.9994 152.4299 0001275 264.0147  96.0576 15.70886623 39705,15.70886623,0.0001275,LEO
62830,STARLINK-11480 [DTC],2025,91.67,-1.0,+,43.0,Active,0,LEO,USA,USA,Unknown,Unknown,Unknown,1 62830U 25019B   25280.66398113  .00354453  00000+0  26368-2 0  9990,2 62830  42.9988 148.3848 0001152 251.4702 108.6041 15.70955782 39817,15.70955782,0.0001152,LEO
62831,STARLINK-11559 [DTC],2025,91.67,-1.0,+,43.0,Active,0,LEO,USA,USA,Unknown,Unknown,Unknown,1 62831U 25019C   25279.99643516  .00366362  00000+0  27230-2 0  9996,2 62831  43.0002 152.8566 0001613 325.1971  34.8791 15.70942036 39701,15.70942036,0.0001613,LEO
62832,STARLINK-11549 [DTC],2025,91.67,-1.0,+,43.0,Active,0,LEO,USA,USA,Unknown,Unknown,Unknown,1 62832U 25019D   25280.61632518  .00240011  00000+0  18180-2 0  9994,2 62832  42.9990 148.8953 0001875 242.9947 117.0729 15.70872250 39806,15.7087225,0.0001875,LEO
